#dP2019  5 15  0  0  0.00000000      96 __u+U IGS08 FIT  IAC
## 2053 259200.00000000   900.00000000 58618 0.0000000000000
+   97   C01C02C03C04C05C06C07C08C09C10C11C12C13C14C16E01E02
+        E03E04E05E07E08E09E11E12E13E14E15E18E19E21E24E25E26
+        E27E30E31E33E36G01G02G03G04G05G06G07G08G09G10G11G12
+        G13G14G15G16G17G18G19G20G21G22G23G24G25G26G27G28G29
+        G30G31G32J01J02J03R01R02R03R04R05R07R08R09R10R11R13
+        R14R15R16R17R18R19R20R21R22R23R24R26  0  0  0  0  0
++        12 12 13 12 12  8  8  8  8  8  7  7  8  7  8  4  4
++         4  4  4  4  5  4  4  4  5  4  4  4  4  4  4  4  4
++         5  4  4  5  4  3  3  3  4  3  3  3  3  3  3  3  3
++         3  3  3  3  3  3  3  3  3  3  3  3  3  3  3  3  3
++         3  3  3  9  9  9  7  5  5  5  5  5  5  5  5  5  6
++         5  5  6  5  5  6  6  5  5  5  6  8  0  0  0  0  0
%c M  cc GPS ccc cccc cccc cccc cccc ccccc ccccc ccccc ccccc
%c cc cc ccc ccc cccc cccc cccc cccc ccccc ccccc ccccc ccccc
%f  1.2500000  1.025000000  0.00000000000  0.000000000000000
%f  0.0000000  0.000000000  0.00000000000  0.000000000000000
%i    0    0    0    0      0      0      0      0         0
%i    0    0    0    0      0      0      0      0         0
/* INFORMATION & ANALYSIS CENTER (IAC)            FINAL DATA
/* S/V CLOCKS ARE ALIGNED TO GPS & GLONASS TIME RESPECTIVELY
/* USING THE BROADCAST EPHEMERIS                            
/* PCV:IGS14_2045 OL/AL:FES2004  NONE     YN ORB:CoN CLK:CoN
*  2019 05 15  4 45  0.00000000
PC01 -32316.101892  27054.899591   1044.725058    585.843661
PC02   4333.633536  41920.288136  -1076.934506    158.983088
PC03 -14706.098038  39474.925841    193.900642    325.687420
PC04 -39594.279172  14491.820104    490.513681   -226.148571
PC05  21768.896678  36045.550177   -848.247113   -126.555807
PC06  -7772.329193  29783.702911 -28320.146623    838.510802
PC07 -20504.877774  22773.408413  28901.176435    -16.099447
PC08 -21587.475129  36361.765657  -1419.143847    157.481902
PC09   5406.875420  38538.037941 -15588.060908    764.115041
PC10  -3190.378558  25876.848719  33245.313999   -752.937451
PC11  -2663.057832 -27687.039808   1911.434346    330.604052
PC12  12931.370241 -13274.741458 -20778.415718    668.469008
PC13 -10265.695328  37729.010219 -16044.614196   -713.693761
PC14   3089.430395 -16160.012378  22614.058530    615.888202
PC16  -3745.928006  32498.643992 -26464.782745   -752.142427
PE01   4486.996217 -16906.430429 -23884.243153   -604.921733
PE02  -4432.475307  16899.302691  23889.374232     60.305045
PE03   4643.188174  23806.925954 -16967.467456   -166.229271
PE04 -19349.852394 -22399.762382     27.547771   -282.057723
PE05 -12931.256534  11262.332274 -24118.250009   -483.867634
PE07  22855.292262   7794.134916  17140.005532   -187.850604
PE08  19601.158339  22189.976534     95.376194   6356.014503
PE09 -22817.983326  -7654.951964 -17208.643066   6439.292822
PE11 -17427.446222   2171.149204  23819.615025   5694.596648
PE12  -8446.598822 -18981.211185  21097.814904   6395.763182
PE13  17318.933636  -2136.390616 -23905.373242    387.065448
PE14  18867.987866  18117.726274 -15305.404830   -567.194230
PE15   8701.212488  18595.279113 -21311.424389    910.400785
PE18  -9995.715987 -24675.118421   3144.651065   -664.852501
PE19  -2973.156001 -23049.433908  18344.397448     -6.420745
PE21  23721.671675 -12849.399641 -12193.967333   -534.025333
PE24 -28907.564105   1239.821818  -6296.563179   6080.770269
PE25 -23757.488369  12818.142840  12136.884583   1804.102703
PE26  16071.716400 -21525.041072 -12431.963994   4568.331175
PE27  28824.403073  -1190.060620   6628.370701    469.703512
PE30  17220.037464  11125.370276  21335.321553   4871.049673
PE31 -16997.191466 -11140.268170 -21516.968428   -464.752297
PE33   5032.645778 -28502.782195   6240.185827   -470.217198
PE36 -15818.828171  21661.649790  12512.074631    712.070031
PG01 -13093.343439  22217.281573  -5770.232545    -16.608823
PG02  19516.116869 -10605.393000 -13841.988502   -213.418311
PG03  -9253.451214  13367.788506 -21026.256442    187.916580
PG04  11039.355959  23891.931362   3596.844000    160.276888
PG05  24993.965081  -3006.967668   8670.623553      0.912847
PG06  15807.216265   3118.309311 -21076.205146    205.232104
PG07  -1472.462742  20435.329814  16894.373401    -24.464963
PG08  -9095.613613  14555.620850  20245.817057   -143.622531
PG09   7728.200481  25215.631683  -3137.702496    411.095131
PG10 -21187.441011 -11394.859955  11535.449317     46.019514
PG11  -8989.558628  24751.018075   3837.047557   -606.459057
PG12  11122.559518 -11933.254216 -21137.823021    242.365770
PG13  14064.559578  -5441.367722  21751.498715    -63.609006
PG14 -16177.927725 -11195.593479 -17610.025670    -80.434690
PG15   7679.230492 -16470.324357  18981.337571   -312.943303
PG16 -24852.077752    568.979268   9756.292416    -40.165441
PG17  14234.994160  19054.612141 -11507.285511     54.930655
PG18 -17223.801450  19780.421337   3202.321572     53.241664
PG19  15749.649774  11917.714146 -18020.625318   -318.859605
PG20 -13332.543522 -14011.586052  18162.569915    524.722882
PG21  -4444.195517 -18136.688920  19744.973180   -192.605285
PG22 -16743.170187  11355.603499 -16937.958912   -701.051552
PG23  -1549.520651  22348.464357 -13613.986797   -186.166377
PG24  14302.114022 -22096.698848  -1918.180718    -66.105144
PG25  -3161.804698 -15488.023050 -21593.179109   -756.342025
PG26 -26344.165925  -4004.491135   -771.121003    201.662514
PG27 -14881.231277   2197.276867  21807.642866   -132.170326
PG28  19333.175619  13564.410752  12659.456039    767.829575
PG29  -2813.195305 -25367.109215  -7379.840154    201.360834
PG30   8510.429269  13634.138895  21142.545139   -104.839567
PG31 -17127.891523  -1849.584856 -20329.951418     38.101191
PG32 -16358.023265 -16373.656386 -13074.401743    -87.237371
PJ01 -26972.314737  16499.629815 -23243.562349   -305.394735
PJ02 -29303.248545  28963.836331  13954.938961      3.181148
PJ03 -25764.468938  24745.772685  27443.921816      0.110707
PR01  21325.889694   9082.829310  10675.855493     43.807320
PR02   9906.692803  -6031.503368  22758.161890    368.606694
PR03  -6292.957285 -15998.545307  18908.257764     -4.825521
PR04 -19152.362758 -16475.777367   3602.930943    306.302578
PR05 -20598.251910  -7885.099894 -12814.672763     28.121079
PR07   6738.923678  16119.465953 -18528.877363    -20.012332
PR08  18832.978583  16659.538600  -4216.958643     17.754158
PR09 -19329.307935  13382.138817   9823.524925     69.742299
PR10  -6386.908072  13103.088555  20885.467003     49.815544
PR11  12609.852842   5849.420445  21408.645380    -66.148235
PR13  20318.258326 -13115.667722  -8143.344050    -23.646799
PR14   6134.301556 -13380.201187 -20829.030732     38.949581
PR15 -11706.337591  -6213.445657 -21778.237637    101.954592
PR16 -22977.717664   4958.725778 -10072.627647      9.510637
PR17   2800.479598 -25325.516332    816.784647    227.925876
PR18  -5121.256195 -18845.059446  16460.377008     -6.807484
PR19 -10189.196383  -2371.895706  23263.069110    -30.725189
PR20  -9806.783216  17327.914772  15917.978172   -378.112736
PR21  -2526.117559  25351.255565  -1459.369174    -48.101162
PR22   6147.724465  16578.966460 -18322.487962    -19.215243
PR23  10838.141178  -3670.113823 -22807.061631    228.033452
PR24   9079.855339 -18904.481608 -14562.297583   -180.457990
PR26 -10044.652095  15328.889438  17762.769544    -12.198687
EOF
